{
  "norad_id": 51715,
  "name": "STARLINK-3533",
  "history": [
    {
      "epoch": "2026-03-28T19:32:05.076960",
      "apogee_km": 540.6330685257008,
      "perigee_km": 538.769402904999,
      "latitude_deg": 39.84351935421274,
      "longitude_deg": 149.63897440000437,
      "semi_major_axis_km": 6917.83823571535,
      "eccentricity": 0.0001347,
      "inclination_deg": 53.2162,
      "raan_deg": 243.2785,
      "arg_perigee_deg": 79.4407,
      "mean_anomaly_deg": 280.6737,
      "mean_motion_rev_day": 15.08853791
    },
    {
      "epoch": "2026-03-29T03:29:00.812256",
      "apogee_km": 540.6260055856346,
      "perigee_km": 538.7969264512203,
      "latitude_deg": -7.313201461858397,
      "longitude_deg": -178.56576415989548,
      "semi_major_axis_km": 6917.848466018428,
      "eccentricity": 0.0001322,
      "inclination_deg": 53.2162,
      "raan_deg": 241.7918,
      "arg_perigee_deg": 78.5601,
      "mean_anomaly_deg": 281.5539,
      "mean_motion_rev_day": 15.08850444
    }
  ]
}